
KX-09                   
1 44520U 19058B   24349.17080403  .00003140  00000+0  29822-3 0  9996
2 44520  97.7894 354.9875 0011536  27.1664 333.0158 14.94181132287828
ZY-1 02D                
1 44528U 19059A   24349.16498660  .00000392  00000+0  15120-3 0  9994
2 44528  98.3922  56.8982 0001001  16.5798 343.5420 14.35412952275432
BNU-1 (JINGSHI 1)       
1 44529U 19059B   24349.15578947  .00001231  00000+0  34853-3 0  9998
2 44529  98.5514  99.4464 0012487 235.0578 124.9441 14.47295977277394
TAURUS-1 (JINNIUZUO 1)  
1 44530U 19059C   24349.12648974  .00010211  00000+0  20846-2 0  9999
2 44530  98.5894 114.9425 0010754 221.4267 138.6118 14.61071124277986
ZHUHAI-1 03A            
1 44534U 19060A   24349.16510927  .00048249  00000+0  11032-2 0  9994
2 44534  97.5064 120.4355 0010464 104.3964 255.8445 15.42623962291684
ZHUHAI-1 03B            
1 44536U 19060C   24349.15211915  .00027470  00000+0  94933-3 0  9995
2 44536  97.4987 121.2443 0013558 144.3985 215.8162 15.29804498291738
ZHUHAI-1 03C            
1 44537U 19060D   24349.13706481  .00028550  00000+0  94646-3 0  9992
2 44537  97.5235 122.0001 0022103 113.1455 247.2117 15.30994754291856
ZHUHAI-1 03D            
1 44538U 19060E   24349.13420494  .00022435  00000+0  89497-3 0  9994
2 44538  97.4802 117.6635 0013804 119.6013 240.6602 15.25104781291682
ZHUHAI-1 03E            
1 44539U 19060F   24349.17708452  .00024294  00000+0  93841-3 0  9995
2 44539  97.5044 119.4257 0014268 161.4268 198.7494 15.26158207291588
BEIDOU-3 M24            
1 44542U 19061A   24347.78971004  .00000110  00000+0  00000+0 0  9992
2 44542  54.4240 201.3282 0009111  17.0266 343.0952  1.86229257 35525
BEIDOU-3 M23            
1 44543U 19061B   24346.84388243  .00000111  00000+0  00000+0 0  9997
2 44543  54.4223 201.3289 0005707  15.1025 343.5000  1.86229300 35509
YUNHAI-1 02             
1 44547U 19063A   24349.13764961  .00000533  00000+0  20966-3 0  9998
2 44547  98.4339   3.8545 0006671  16.2363 343.9034 14.33132559273103
COSMOS 2541             
1 44552U 19065A   24346.94804312 -.00000067  00000+0  00000+0 0  9993
2 44552  62.7501 208.2754 6542627 272.6558  19.7675  2.00617326 38146
GAOFEN-10R              
1 44622U 19066A   24349.23031038  .00002681  00000+0  34250-3 0  9995
2 44622  97.9851 290.4340 0005221 103.3709 256.8086 14.82248304280881
EUTELSAT 5 WEST B       
1 44624U 19067A   24348.14771844 -.00000028  00000+0  00000+0 0  9999
2 44624   0.0618 357.8529 0003556 263.8276 228.8220  1.00271125 18911
MEV-1                   
1 44625U 19067B   24348.10188199 -.00000188  00000+0  00000+0 0  9998
2 44625   0.0445  90.2877 0001717 214.5425 146.6283  1.00271003 18797
PALISADE                
1 44634U 19069A   24348.54070015 -.00000361  00000+0 -10474-2 0  9998
2 44634  87.8934  29.2204 0011046 103.1195 257.1167 13.11882866247087
TJS-4                   
1 44637U 19070A   24348.58605682 -.00000156  00000+0  00000+0 0  9993
2 44637   0.0592  58.0471 0001562 238.0253  81.1698  1.00269193 19008
GAOFEN-7                
1 44703U 19072A   24349.15314569  .00008536  00000+0  38154-3 0  9998
2 44703  97.3167  57.7441 0008232 155.2156 204.9477 15.21534509284014
BEIDOU-3 IGSO-3         
1 44709U 19073A   24348.24559876 -.00000224  00000+0  00000+0 0  9998
2 44709  55.7478 286.8265 0041581 184.9987 174.9197  1.00302429 18912
STARLINK-1008           
1 44714U 19074B   24348.61234452 -.00001337  00000+0 -70894-4 0  9996
2 44714  53.0559  51.5848 0001708  84.2761 275.8422 15.06393378280931
STARLINK-1009           
1 44715U 19074C   24348.46734032  .00066208  00000+0  70439-3 0  9999
2 44715  53.0561  43.0181 0001662  73.7615 286.3581 15.63421517281036
STARLINK-1010           
1 44716U 19074D   24348.55337184  .00020849  00000+0  14139-2 0  9992
2 44716  53.0559  51.8460 0001351  69.4813 290.6321 15.06413092280909
STARLINK-1011           
1 44717U 19074E   24348.61786451  .00002600  00000+0  19339-3 0  9998
2 44717  53.0555  71.5597 0001322  68.5031 291.6099 15.06392948280657
STARLINK-1012           
1 44718U 19074F   24348.45752937  .00004679  00000+0  33280-3 0  9992
2 44718  53.0544  52.2790 0001417  98.2636 261.8514 15.06400681280737
STARLINK-1013           
1 44719U 19074G   24348.46490839  .00018807  00000+0  12776-2 0  9998
2 44719  53.0553  52.2437 0001435  93.6535 266.4618 15.06414916281860
STARLINK-1014           
1 44720U 19074H   24349.15680452  .00056352  00000+0  25656-2 0  9997
2 44720  53.0556  37.3974 0001409  21.4786 338.6268 15.20174234281183
STARLINK-1015           
1 44721U 19074J   24349.16895488  .00008762  00000+0  60637-3 0  9997
2 44721  53.0562  49.4292 0001715 114.5770 245.5398 15.06401918281002
STARLINK-1017           
1 44723U 19074L   24348.62339961  .00008754  00000+0  60546-3 0  9998
2 44723  53.0558  51.5395 0001420 110.6356 249.4786 15.06423253280938
STARLINK-1019           
1 44724U 19074M   24349.18365235  .00005048  00000+0  35747-3 0  9992
2 44724  53.0554  49.0168 0001914  94.7763 265.3445 15.06407593281015
STARLINK-1020           
1 44725U 19074N   24348.52572367  .00003499  00000+0  25365-3 0  9999
2 44725  53.0552  71.9740 0001500  94.8058 265.3102 15.06402650280639
STARLINK-1021           
1 44726U 19074P   24348.58286214  .00008384  00000+0  58126-3 0  9998
2 44726  53.0548  51.7154 0002033  84.3562 275.7658 15.06388696280922
STARLINK-1027           
1 44732U 19074V   24348.64734789  .00004425  00000+0  31582-3 0  9996
2 44732  53.0569  71.4339 0001653  87.8169 272.3009 15.06398325280657
STARLINK-1028           
1 44733U 19074W   24348.57917520  .00119048  00000+0  85253-3 0  9997
2 44733  53.0506  41.7840 0002275  44.6809 315.4392 15.72866207281061
STARLINK-1029           
1 44734U 19074X   24348.66025664 -.00001328  00000+0 -70288-4 0  9993
2 44734  53.0573 331.3722 0001848  97.7992 262.3207 15.06399837282030
STARLINK-1030           
1 44735U 19074Y   24348.65471921  .00011115  00000+0  76392-3 0  9998
2 44735  53.0551  71.3934 0001137  80.4806 279.6311 15.06400066280657
STARLINK-1031           
1 44736U 19074Z   24348.53677733  .00004272  00000+0  30552-3 0  9999
2 44736  53.0560  71.9205 0001329  98.2174 261.8966 15.06395394280648
STARLINK-1032           
1 44737U 19074AA  24348.51305699  .00021255  00000+0  19307-3 0  9992
2 44737  53.0558  63.8679 0000934  66.1378 293.9735 15.67967621280759
STARLINK-1035           
1 44740U 19074AD  24348.67684366  .00018687  00000+0  12689-2 0  9994
2 44740  53.0545  71.2997 0001506  68.9038 291.2112 15.06434660280669
STARLINK-1036           
1 44741U 19074AE  24348.48885002 -.00000971  00000+0 -46298-4 0  9998
2 44741  53.0554  72.1443 0001837 119.3511 240.7661 15.06390577280633
STARLINK-1038           
1 44743U 19074AG  24348.91667824  .00467323  00000+0  52741-2 0  9992
2 44743  53.0530  83.3779 0000972  60.7007  78.8173 15.60423714280518
STARLINK-1039           
1 44744U 19074AH  24348.54967435  .00002292  00000+0  17278-3 0  9990
2 44744  53.0537  91.8568 0000955 123.8075 236.3005 15.06384544280199
STARLINK-1042           
1 44747U 19074AL  24348.48126211  .00037537  00000+0  13316-2 0  9993
2 44747  53.0543  66.1683 0002670 186.9379 173.1583 15.28732896280566
STARLINK-1043           
1 44748U 19074AM  24348.46119906  .00002985  00000+0  21920-3 0  9995
2 44748  53.0546  92.2608 0000931 108.5205 251.5886 15.06396082280356
STARLINK-1046           
1 44751U 19074AQ  24348.67498967  .00000685  00000+0  64864-4 0  9999
2 44751  53.0528  91.2995 0001289  94.9368 265.1768 15.06390596280380
STARLINK-1047           
1 44752U 19074AR  24348.61664971  .00040835  00000+0  23317-2 0  9991
2 44752  53.0537  70.0427 0002467 347.7095  12.3836 15.12354079280674
STARLINK-1048           
1 44753U 19074AS  24349.16523453  .00011221  00000+0  77061-3 0  9995
2 44753  53.0540  49.0989 0001685  64.4815 295.6348 15.06418314281011
STARLINK-1052           
1 44757U 19074AW  24348.91667824  .00189537  00000+0  23515-2 0  9992
2 44757  53.0294  11.2147 0005226  33.2210 183.8177 15.58884340281534
STARLINK-1053           
1 44758U 19074AX  24347.58931433 -.00000910  00000+0 -35174-4 0  9990
2 44758  53.0561  94.1117 0000806  93.7009 266.4075 15.12100418280086
STARLINK-1054           
1 44759U 19074AY  24348.57178675  .00004733  00000+0  33646-3 0  9998
2 44759  53.0557  91.7625 0001266  90.3502 269.7632 15.06398305277843
STARLINK-1055           
1 44760U 19074AZ  24348.91667824  .00374245  00000+0  14380-2 0  9998
2 44760  52.9989 339.5144 0006009  67.6649 319.5164 15.85839358281978
STARLINK-1056           
1 44761U 19074BA  24348.56809769  .00005714  00000+0  40216-3 0  9996
2 44761  53.0528  91.7819 0001481  91.5519 268.5640 15.06398936280377
STARLINK-1057           
1 44762U 19074BB  24348.50361706  .00015020  00000+0  10247-2 0  9996
2 44762  53.0544  72.0701 0001401  75.9949 284.1196 15.06414053280462
STARLINK-1058           
1 44763U 19074BC  24348.66327894  .00058929  00000+0  80907-3 0  9990
2 44763  53.0533  82.2499 0003646  30.1134 330.0086 15.56777014280519
STARLINK-1060           
1 44765U 19074BE  24348.65103835  .00012138  00000+0  83220-3 0  9991
2 44765  53.0551  71.4093 0002184  68.0946 292.0275 15.06407064280650
STARLINK-1061           
1 44766U 19074BF  24348.91667824  .00190871  00000+0  15991-2 0  9994
2 44766  53.0528  74.8973 0002813   6.4208 245.6704 15.68860291280648
STARLINK-1062           
1 44767U 19074BG  24348.63369059  .00094622  00000+0  12666-2 0  9996
2 44767  53.0493  82.8937 0004005  16.2939 343.8200 15.57252321280508
STARLINK-1063           
1 44768U 19074BH  24348.73027936 -.00000076  00000+0  13773-4 0  9996
2 44768  53.0543  91.0525 0001371  83.6222 276.4923 15.06386148280395
